NORAD_CAT_ID,OBJECT_NAME,OBJECT_TYPE,EPOCH,MEAN_MOTION,ECCENTRICITY,INCLINATION,RA_OF_ASC_NODE,ARG_OF_PERICENTER,MEAN_ANOMALY,BSTAR,MEAN_MOTION_DOT,MEAN_MOTION_DDOT,TLE_LINE0,TLE_LINE1,TLE_LINE2,SEMIMAJOR_AXIS,PERIOD,APOGEE,PERIGEE,DECAYED
53156.0,STARLINK-4087,PAYLOAD,2023-01-25 07:53:38,15.08846198,0.000121,53.2157,238.9076,69.6487,290.4635,0.00019238,2.776e-05,0.0,0 STARLINK-4087,1 53156U 22083AA  23025.32891223  .00002776  00000-0  19238-3 0  9995,2 53156  53.2157 238.9076 0001210  69.6487 290.4635 15.08846198 29352,6917.861,95.437,540.564,538.889,0.0
53156.0,STARLINK-4087,PAYLOAD,2023-01-25 17:25:57,15.08838422,0.0001193,53.2151,237.1242,76.1457,283.9668,2.2564e-05,7.1e-07,0.0,0 STARLINK-4087,1 53156U 22083AA  23025.72635523  .00000071  00000-0  22564-4 0  9991,2 53156  53.2151 237.1242 0001193  76.1457 283.9668 15.08838422 30044,6917.885,95.438,540.576,538.925,0.0
53156.0,STARLINK-4087,PAYLOAD,2023-01-26 12:30:34,15.08843106,0.0001152,53.2152,233.5536,102.1842,257.9279,0.00012687,1.732e-05,0.0,0 STARLINK-4087,1 53156U 22083AA  23026.52123317  .00001732  00000-0  12687-3 0  9992,2 53156  53.2152 233.5536 0001152 102.1842 257.9279 15.08843106 29530,6917.871,95.437,540.533,538.939,0.0
53156.0,STARLINK-4087,PAYLOAD,2023-01-26 20:27:30,15.08845237,0.0001119,53.2158,232.0687,79.3399,280.7719,0.00010721,1.419e-05,0.0,0 STARLINK-4087,1 53156U 22083AA  23026.85243176  .00001419  00000-0  10721-3 0  9993,2 53156  53.2158 232.0687 0001119  79.3399 280.7719 15.08845237 30219,6917.8640000000005,95.437,540.503,538.955,0.0
53156.0,STARLINK-4087,PAYLOAD,2023-01-27 09:10:36,15.08823065,0.0001195,53.2166,229.6917,87.0626,273.0503,-0.00011556,-2.126e-05,0.0,0 STARLINK-4087,1 53156U 22083AA  23027.38236561 -.00002126  00000-0 -11556-3 0  9997,2 53156  53.2166 229.6917 0001195  87.0626 273.0503 15.08823065 30298,6917.932,95.439,540.624,538.97,0.0
53156.0,STARLINK-4087,PAYLOAD,2023-01-27 20:18:19,15.08817043,0.0001104,53.2165,227.61,74.0243,286.0871,-2.3094e-05,-6.55e-06,0.0,0 STARLINK-4087,1 53156U 22083AA  23027.84605996 -.00000655  00000-0 -23094-4 0  9996,2 53156  53.2165 227.6100 0001104  74.0243 286.0871 15.08817043 30369,6917.951,95.439,540.5790000000001,539.052,0.0
53156.0,STARLINK-4087,PAYLOAD,2023-01-28 05:50:37,15.08829394,0.0001087,53.2167,225.8244,81.3371,278.7744,1.0161e-05,-1.26e-06,0.0,0 STARLINK-4087,1 53156U 22083AA  23028.24349436 -.00000126  00000-0  10161-4 0  9998,2 53156  53.2167 225.8244 0001087  81.3371 278.7744 15.08829394 30429,6917.913,95.438,540.53,539.026,0.0
53156.0,STARLINK-4087,PAYLOAD,2023-01-28 13:47:33,15.08836703,0.0001066,53.2168,224.3375,81.1574,278.9539,7.7151e-05,9.4e-06,0.0,0 STARLINK-4087,1 53156U 22083AA  23028.57469026  .00000940  00000-0  77151-4 0  9997,2 53156  53.2168 224.3375 0001066  81.1574 278.9539 15.08836703 29849,6917.89,95.438,540.493,539.018,0.0
53156.0,STARLINK-4087,PAYLOAD,2023-01-28 20:09:05,15.08836792,0.0001136,53.2173,223.1487,83.7151,276.3971,0.00012301,1.67e-05,0.0,0 STARLINK-4087,1 53156U 22083AA  23028.83965094  .00001670  00000-0  12301-3 0  9998,2 53156  53.2173 223.1487 0001136  83.7151 276.3971 15.08836792 30519,6917.89,95.438,540.541,538.969,0.0
53156.0,STARLINK-4087,PAYLOAD,2023-01-29 19:59:52,15.088471,0.0001078,53.2165,218.6874,73.8619,286.2492,0.00040814,6.215e-05,0.0,0 STARLINK-4087,1 53156U 22083AA  23029.83325014  .00006215  00000-0  40814-3 0  9991,2 53156  53.2165 218.6874 0001078  73.8619 286.2492 15.08847100 30033,6917.859,95.437,540.469,538.978,0.0
53156.0,STARLINK-4087,PAYLOAD,2023-01-30 05:32:11,15.08851565,0.0001054,53.2163,216.9033,76.4191,283.6919,0.00019234,2.776e-05,0.0,0 STARLINK-4087,1 53156U 22083AA  23030.23068519  .00002776  00000-0  19234-3 0  9991,2 53156  53.2163 216.9033 0001054  76.4191 283.6919 15.08851565 30728,6917.845,95.437,540.439,538.981,0.0
53156.0,STARLINK-4087,PAYLOAD,2023-01-30 13:29:06,15.08852421,0.0001111,53.2162,215.4168,76.9347,283.1769,0.00016493,2.339e-05,0.0,0 STARLINK-4087,1 53156U 22083AA  23030.56188301  .00002339  00000-0  16493-3 0  9998,2 53156  53.2162 215.4168 0001111  76.9347 283.1769 15.08852421 30148,6917.842,95.437,540.476,538.939,0.0
53156.0,STARLINK-4087,PAYLOAD,2023-01-30 15:04:29,15.0885237,0.0001093,53.2161,215.1193,75.6065,284.5048,0.00016105,2.277e-05,0.0,0 STARLINK-4087,1 53156U 22083AA  23030.62812242  .00002277  00000-0  16105-3 0  9994,2 53156  53.2161 215.1193 0001093  75.6065 284.5048 15.08852370 30153,6917.843,95.437,540.464,538.951,0.0
53156.0,STARLINK-4087,PAYLOAD,2023-01-31 11:44:31,15.08821636,0.0001259,53.2158,211.2539,86.171,273.9426,0.00078919,0.00012288,0.0,0 STARLINK-4087,1 53156U 22083AA  23031.48925795  .00012288  00000-0  78919-3 0  9991,2 53156  53.2158 211.2539 0001259  86.1710 273.9426 15.08821636 30915,6917.937,95.439,540.672,538.931,0.0
53156.0,STARLINK-4087,PAYLOAD,2023-01-31 13:19:53,15.08848306,0.000117,53.2167,210.9562,79.5889,280.5235,3.8191e-05,3.2e-06,0.0,0 STARLINK-4087,1 53156U 22083AA  23031.55548141  .00000320  00000-0  38191-4 0  9998,2 53156  53.2167 210.9562 0001170  79.5889 280.5235 15.08848306 30298,6917.855,95.437,540.529,538.911,0.0
53156.0,STARLINK-4087,PAYLOAD,2023-01-31 14:55:16,15.08848138,0.0001174,53.2166,210.6588,79.5265,280.586,3.0297e-05,1.94e-06,0.0,0 STARLINK-4087,1 53156U 22083AA  23031.62172092  .00000194  00000-0  30297-4 0  9992,2 53156  53.2166 210.6588 0001174  79.5265 280.5860 15.08848138 30932,6917.856,95.437,540.533,538.908,0.0
53156.0,STARLINK-4087,PAYLOAD,2023-02-01 13:10:40,15.08845025,0.000115,53.2167,206.4951,86.3073,273.8051,-2.0846e-05,-6.2e-06,0.0,0 STARLINK-4087,1 53156U 22083AA  23032.54907754 -.00000620  00000-0 -20846-4 0  9990,2 53156  53.2167 206.4951 0001150  86.3073 273.8051 15.08845025 30442,6917.865,95.437,540.526,538.934,0.0
53156.0,STARLINK-4087,PAYLOAD,2023-02-02 11:26:04,15.08840054,0.0001164,53.2167,202.3324,83.5456,276.5669,2.3795e-05,9.1e-07,0.0,0 STARLINK-4087,1 53156U 22083AA  23033.47643713  .00000091  00000-0  23795-4 0  9991,2 53156  53.2167 202.3324 0001164  83.5456 276.5669 15.08840054 30587,6917.88,95.438,540.55,538.94,0.0
53156.0,STARLINK-4087,PAYLOAD,2023-02-02 20:58:22,15.08840479,0.0001132,53.2168,200.5477,90.427,269.6852,2.6469e-05,1.33e-06,0.0,0 STARLINK-4087,1 53156U 22083AA  23033.87387613  .00000133  00000-0  26469-4 0  9997,2 53156  53.2168 200.5477 0001132  90.4270 269.6852 15.08840479 31278,6917.879,95.438,540.527,538.961,0.0
53156.0,STARLINK-4087,PAYLOAD,2023-02-03 11:16:51,15.08833545,0.0001102,53.217,197.8711,92.699,267.4128,-9.977e-06,-4.47e-06,0.0,0 STARLINK-4087,1 53156U 22083AA  23034.47004262 -.00000447  00000-0 -99770-5 0  9996,2 53156  53.2170 197.8711 0001102  92.6990 267.4128 15.08833545 31368,6917.9,95.438,540.527,539.003,0.0
53156.0,STARLINK-4087,PAYLOAD,2023-02-04 11:07:38,15.08837728,0.0001249,53.2159,193.411,100.9887,259.1246,5.5014e-05,5.88e-06,0.0,0 STARLINK-4087,1 53156U 22083AA  23035.46363966  .00000588  00000-0  55014-4 0  9991,2 53156  53.2159 193.4110 0001249 100.9887 259.1246 15.08837728 31513,6917.887,95.438,540.616,538.888,0.0
53156.0,STARLINK-4087,PAYLOAD,2023-02-04 14:18:24,15.08838986,0.0001262,53.216,192.8162,101.1907,258.9227,6.5264e-05,7.51e-06,0.0,0 STARLINK-4087,1 53156U 22083AA  23035.59611882  .00000751  00000-0  65264-4 0  9998,2 53156  53.2160 192.8162 0001262 101.1907 258.9227 15.08838986 30901,6917.883,95.438,540.622,538.875,0.0
53156.0,STARLINK-4087,PAYLOAD,2023-02-04 17:29:10,15.08858782,0.0001602,53.2165,192.2217,106.2826,253.8343,-0.0001675,-2.954e-05,0.0,0 STARLINK-4087,1 53156U 22083AA  23035.72859325 -.00002954  00000-0 -16750-3 0  9993,2 53156  53.2165 192.2217 0001602 106.2826 253.8343 15.08858782 31556,6917.823,95.436,540.796,538.58,0.0
53156.0,STARLINK-4087,PAYLOAD,2023-02-04 19:04:33,15.08859179,0.0001608,53.2165,191.9243,107.2593,252.8575,-0.0001646,-2.908e-05,0.0,0 STARLINK-4087,1 53156U 22083AA  23035.79483214 -.00002908  00000-0 -16460-3 0  9997,2 53156  53.2165 191.9243 0001608 107.2593 252.8575 15.08859179 30937,6917.822,95.436,540.799,538.574,0.0
53156.0,STARLINK-4087,PAYLOAD,2023-02-05 03:01:30,15.08833916,0.0001305,53.2169,190.4373,102.1668,257.9471,4.2805e-05,3.93e-06,0.0,0 STARLINK-4087,1 53156U 22083AA  23036.12604312  .00000393  00000-0  42805-4 0  9996,2 53156  53.2169 190.4373 0001305 102.1668 257.9471 15.08833916 31618,6917.899,95.438,540.667,538.861,0.0
53156.0,STARLINK-4087,PAYLOAD,2023-02-05 14:09:12,15.0883404,0.0001417,53.2164,188.3566,92.5215,267.5939,1.8278e-05,3e-08,0.0,0 STARLINK-4087,1 53156U 22083AA  23036.58972721  .00000003  00000-0  18278-4 0  9993,2 53156  53.2164 188.3566 0001417  92.5215 267.5939 15.08834040 31050,6917.899,95.438,540.744,538.783,0.0
53156.0,STARLINK-4087,PAYLOAD,2023-02-05 17:19:58,15.08835511,0.0001273,53.2176,187.7624,92.9994,267.1143,2.0479e-05,3.8e-07,0.0,0 STARLINK-4087,1 53156U 22083AA  23036.72220655  .00000038  00000-0  20479-4 0  9995,2 53156  53.2176 187.7624 0001273  92.9994 267.1143 15.08835511 31078,6917.894,95.438,540.64,538.878,0.0
53156.0,STARLINK-4087,PAYLOAD,2023-02-06 13:59:58,15.08843976,0.0001274,53.2178,183.8968,95.7739,264.3398,8.0386e-05,9.92e-06,0.0,0 STARLINK-4087,1 53156U 22083AA  23037.58332106  .00000992  00000-0  80386-4 0  9997,2 53156  53.2178 183.8968 0001274  95.7739 264.3398 15.08843976 31207,6917.868,95.437,540.615,538.852,0.0
53156.0,STARLINK-4087,PAYLOAD,2023-02-06 18:46:07,15.08851676,0.0001098,53.2178,183.0049,84.2835,275.8282,0.00014554,2.03e-05,0.0,0 STARLINK-4087,1 53156U 22083AA  23037.78203464  .00002030  00000-0  14554-3 0  9991,2 53156  53.2178 183.0049 0001098  84.2835 275.8282 15.08851676 31860,6917.845,95.437,540.469,538.95,0.0
53156.0,STARLINK-4087,PAYLOAD,2023-02-07 02:43:04,15.08839827,0.0001752,53.2187,181.5156,83.2086,276.9105,6.1179e-05,6.86e-06,0.0,0 STARLINK-4087,1 53156U 22083AA  23038.11324567  .00000686  00000-0  61179-4 0  9998,2 53156  53.2187 181.5156 0001752  83.2086 276.9105 15.08839827 31912,6917.881,95.438,540.958,538.534,0.0
